{
  "norad_id": 68027,
  "name": "STARLINK-36940",
  "history": [
    {
      "epoch": "2026-03-28T20:23:20.215392Z",
      "apogee_km": 345.2641233308923,
      "perigee_km": 342.68323615651207,
      "latitude_deg": 6.498148631916987e-06,
      "longitude_deg": -94.81661190284005,
      "height_km": 346.3574578440304,
      "semi_major_axis_km": 6722.110679743702,
      "eccentricity": 0.00019197,
      "inclination_deg": 97.2856,
      "raan_deg": 37.2817,
      "arg_perigee_deg": 52.7027,
      "mean_anomaly_deg": 307.4413,
      "mean_motion_rev_day": 15.75231086
    },
    {
      "epoch": "2026-03-29T02:29:15.321120Z",
      "apogee_km": 345.4325503774644,
      "perigee_km": 342.0716058384096,
      "latitude_deg": 5.7205978308964586e-05,
      "longitude_deg": 173.71981217983685,
      "height_km": 347.12995861671885,
      "semi_major_axis_km": 6721.889078107936,
      "eccentricity": 0.00025,
      "inclination_deg": 97.2858,
      "raan_deg": 37.5482,
      "arg_perigee_deg": 97.2992,
      "mean_anomaly_deg": 262.8558,
      "mean_motion_rev_day": 15.75308983
    },
    {
      "epoch": "2026-03-30T02:52:56.240832Z",
      "apogee_km": 345.2020913739316,
      "perigee_km": 342.4661146955741,
      "latitude_deg": 5.8598056801640747e-05,
      "longitude_deg": 167.86375907280646,
      "height_km": 347.5817191408121,
      "semi_major_axis_km": 6721.971103034753,
      "eccentricity": 0.00020351,
      "inclination_deg": 97.2838,
      "raan_deg": 38.6145,
      "arg_perigee_deg": 115.1789,
      "mean_anomaly_deg": 244.9688,
      "mean_motion_rev_day": 15.75280149
    },
    {
      "epoch": "2026-03-30T07:27:22.714848Z",
      "apogee_km": 344.81637240661166,
      "perigee_km": 342.88581742575207,
      "latitude_deg": 2.2680232658451308e-05,
      "longitude_deg": 99.26650710838047,
      "height_km": 347.4459924722817,
      "semi_major_axis_km": 6721.988094916182,
      "eccentricity": 0.0001436,
      "inclination_deg": 97.2844,
      "raan_deg": 38.8154,
      "arg_perigee_deg": 116.3474,
      "mean_anomaly_deg": 243.7939,
      "mean_motion_rev_day": 15.75274176
    },
    {
      "epoch": "2026-03-30T19:39:12.432096Z",
      "apogee_km": 344.6047780226363,
      "perigee_km": 343.34814613203616,
      "latitude_deg": 2.4753775420831757e-05,
      "longitude_deg": -83.65886666021999,
      "height_km": 347.0388964169017,
      "semi_major_axis_km": 6722.113462077336,
      "eccentricity": 9.347e-05,
      "inclination_deg": 97.2863,
      "raan_deg": 39.3481,
      "arg_perigee_deg": 80.4337,
      "mean_anomaly_deg": 279.7034,
      "mean_motion_rev_day": 15.75230108
    },
    {
      "epoch": "2026-03-31T20:00:01.999008Z",
      "apogee_km": 351.0932241514629,
      "perigee_km": 349.33174225675884,
      "latitude_deg": -13.181647497247978,
      "longitude_deg": -87.09485520481861,
      "height_km": 356.0860130734287,
      "semi_major_axis_km": 6728.349483204111,
      "eccentricity": 0.0001309,
      "inclination_deg": 97.2856,
      "raan_deg": 40.4123,
      "arg_perigee_deg": 81.8933,
      "mean_anomaly_deg": 265.0381,
      "mean_motion_rev_day": 15.73040665
    },
    {
      "epoch": "2026-04-01T20:00:01.999008Z",
      "apogee_km": 363.51315952464574,
      "perigee_km": 361.0313408387283,
      "latitude_deg": -57.97913878713334,
      "longitude_deg": 79.52680136733899,
      "height_km": 385.6635354412432,
      "semi_major_axis_km": 6740.409250181687,
      "eccentricity": 0.0001841,
      "inclination_deg": 97.2855,
      "raan_deg": 41.4551,
      "arg_perigee_deg": 102.3283,
      "mean_anomaly_deg": 136.1508,
      "mean_motion_rev_day": 15.68820888
    },
    {
      "epoch": "2026-04-02T20:00:01.999008Z",
      "apogee_km": 375.6169944566964,
      "perigee_km": 373.13612097559144,
      "latitude_deg": 64.21451510244663,
      "longitude_deg": 106.56292249499792,
      "height_km": 384.3251360159036,
      "semi_major_axis_km": 6752.513557716144,
      "eccentricity": 0.0001837,
      "inclination_deg": 97.285,
      "raan_deg": 42.4915,
      "arg_perigee_deg": 93.4716,
      "mean_anomaly_deg": 21.4231,
      "mean_motion_rev_day": 15.64604463
    },
    {
      "epoch": "2026-04-02T22:00:01.999584Z",
      "apogee_km": 376.604285885428,
      "perigee_km": 374.0000246783684,
      "latitude_deg": -43.752130873836165,
      "longitude_deg": 54.3199073471782,
      "height_km": 392.9028473942567,
      "semi_major_axis_km": 6753.439155281898,
      "eccentricity": 0.00019281,
      "inclination_deg": 97.285,
      "raan_deg": 42.5771,
      "arg_perigee_deg": 103.9268,
      "mean_anomaly_deg": 119.9736,
      "mean_motion_rev_day": 15.64282817
    },
    {
      "epoch": "2026-04-03T20:00:01.999008Z",
      "apogee_km": 387.4882969134833,
      "perigee_km": 385.4724409375449,
      "latitude_deg": -23.914442285539806,
      "longitude_deg": -85.41772075714943,
      "height_km": 396.13535613337496,
      "semi_major_axis_km": 6764.617368925514,
      "eccentricity": 0.000149,
      "inclination_deg": 97.2851,
      "raan_deg": 43.521,
      "arg_perigee_deg": 97.6444,
      "mean_anomaly_deg": 238.5037,
      "mean_motion_rev_day": 15.60407063
    },
    {
      "epoch": "2026-04-04T20:00:01.999008Z",
      "apogee_km": 400.09675223638715,
      "perigee_km": 397.27488321508554,
      "latitude_deg": -2.4166101213277646,
      "longitude_deg": 91.08113942320362,
      "height_km": 402.11055455803074,
      "semi_major_axis_km": 6776.822817725736,
      "eccentricity": 0.0002082,
      "inclination_deg": 97.285,
      "raan_deg": 44.5445,
      "arg_perigee_deg": 94.8631,
      "mean_anomaly_deg": 87.4081,
      "mean_motion_rev_day": 15.56193387
    },
    {
      "epoch": "2026-04-05T14:00:03.000384Z",
      "apogee_km": 408.98678445220867,
      "perigee_km": 406.7815990057443,
      "latitude_deg": 56.39699684268274,
      "longitude_deg": -9.618137448287046,
      "height_km": 416.4844973174147,
      "semi_major_axis_km": 6786.021191728976,
      "eccentricity": 0.00016248,
      "inclination_deg": 97.2849,
      "raan_deg": 45.3107,
      "arg_perigee_deg": 94.2,
      "mean_anomaly_deg": 322.8085,
      "mean_motion_rev_day": 15.53030356
    },
    {
      "epoch": "2026-04-05T20:00:03.000384Z",
      "apogee_km": 412.140322416396,
      "perigee_km": 410.03023213261986,
      "latitude_deg": 13.180620810333895,
      "longitude_deg": -90.2868254158263,
      "height_km": 413.3841705995956,
      "semi_major_axis_km": 6789.222277274508,
      "eccentricity": 0.0001554,
      "inclination_deg": 97.285,
      "raan_deg": 45.565,
      "arg_perigee_deg": 99.019,
      "mean_anomaly_deg": 274.327,
      "mean_motion_rev_day": 15.51932116
    },
    {
      "epoch": "2026-04-06T06:00:02.000160Z",
      "apogee_km": 418.0504369046548,
      "perigee_km": 415.64283830217846,
      "latitude_deg": 1.4232184360095923,
      "longitude_deg": -58.38584332922812,
      "height_km": 419.6403048440542,
      "semi_major_axis_km": 6794.983637603416,
      "eccentricity": 0.00017716,
      "inclination_deg": 97.285,
      "raan_deg": 45.9855,
      "arg_perigee_deg": 96.4171,
      "mean_anomaly_deg": 82.0122,
      "mean_motion_rev_day": 15.49958746
    },
    {
      "epoch": "2026-04-07T14:00:01.999872Z",
      "apogee_km": 432.1996619183046,
      "perigee_km": 430.14542941456693,
      "latitude_deg": 42.47986970979431,
      "longitude_deg": -5.2217256245260915,
      "height_km": 436.9252840027971,
      "semi_major_axis_km": 6809.309545666435,
      "eccentricity": 0.00015084,
      "inclination_deg": 97.2851,
      "raan_deg": 47.3297,
      "arg_perigee_deg": 97.8905,
      "mean_anomaly_deg": 304.9356,
      "mean_motion_rev_day": 15.4506995
    },
    {
      "epoch": "2026-04-07T20:00:00.999360Z",
      "apogee_km": 435.41144872423865,
      "perigee_km": 433.23554884092846,
      "latitude_deg": -8.188921817520521,
      "longitude_deg": -87.479600890128,
      "height_km": 439.16738578605487,
      "semi_major_axis_km": 6812.460498782583,
      "eccentricity": 0.0001597,
      "inclination_deg": 97.2843,
      "raan_deg": 47.581,
      "arg_perigee_deg": 97.5235,
      "mean_anomaly_deg": 254.4145,
      "mean_motion_rev_day": 15.43998117
    },
    {
      "epoch": "2026-04-08T14:00:04.999680Z",
      "apogee_km": 444.9797736606206,
      "perigee_km": 442.249162982881,
      "latitude_deg": -14.180791881650388,
      "longitude_deg": 179.62744517446458,
      "height_km": 450.1213933368,
      "semi_major_axis_km": 6821.7514683217505,
      "eccentricity": 0.00020014,
      "inclination_deg": 97.2844,
      "raan_deg": 48.3328,
      "arg_perigee_deg": 83.5084,
      "mean_anomaly_deg": 110.559,
      "mean_motion_rev_day": 15.4084489
    },
    {
      "epoch": "2026-04-09T20:00:01.999008Z",
      "apogee_km": 457.16243538131585,
      "perigee_km": 454.22935430284997,
      "latitude_deg": -82.65141373350144,
      "longitude_deg": -8.207744090252039,
      "height_km": 485.40891647048204,
      "semi_major_axis_km": 6833.832894842082,
      "eccentricity": 0.0002146,
      "inclination_deg": 97.2846,
      "raan_deg": 49.5683,
      "arg_perigee_deg": 118.3815,
      "mean_anomaly_deg": 152.8517,
      "mean_motion_rev_day": 15.36760643
    },
    {
      "epoch": "2026-04-10T12:00:02.000160Z",
      "apogee_km": 466.5762385197577,
      "perigee_km": 464.5505032099809,
      "latitude_deg": -8.890115571319335,
      "longitude_deg": 32.622555904309664,
      "height_km": 470.84088919576664,
      "semi_major_axis_km": 6843.700370864869,
      "eccentricity": 0.000148,
      "inclination_deg": 97.2846,
      "raan_deg": 50.2245,
      "arg_perigee_deg": 116.5099,
      "mean_anomaly_deg": 234.7206,
      "mean_motion_rev_day": 15.33438212
    }
  ]
}